NORAD_CAT_ID,OBJECT_NAME,OBJECT_TYPE,EPOCH,MEAN_MOTION,ECCENTRICITY,INCLINATION,RA_OF_ASC_NODE,ARG_OF_PERICENTER,MEAN_ANOMALY,BSTAR,MEAN_MOTION_DOT,MEAN_MOTION_DDOT,TLE_LINE0,TLE_LINE1,TLE_LINE2,SEMIMAJOR_AXIS,PERIOD,APOGEE,PERIGEE,DECAYED
49149.0,STARLINK-3053,PAYLOAD,2021-12-25 14:00:01,15.03498234,0.0003332,70.0001,205.098,284.8023,172.0362,-0.051854,-0.00662693,0.0,0 STARLINK-3053,1 49149U 21082V   21359.58334491 -.00662693  00000-0 -51854-1 0  9995,2 49149  70.0001 205.0980 0003332 284.8023 172.0362 15.03498234  3608,6934.255999999999,95.777,558.432,553.811,0.0
49149.0,STARLINK-3053,PAYLOAD,2021-12-25 22:00:00,15.030324900000002,0.0003398,70.0,204.2498,288.3918,171.845,-0.052792,-0.00666132,0.0,0 STARLINK-3053,1 49149U 21082V   21359.91667824 -.00666132  00000-0 -52792-1 0  9995,2 49149  70.0000 204.2498 0003398 288.3918 171.8450 15.03032490  3609,6935.689,95.806,559.911,555.197,0.0
49149.0,STARLINK-3053,PAYLOAD,2021-12-26 12:00:00,15.02208737,0.000333,69.9999,202.7673,281.616,93.2214,-0.053093,-0.00656089,0.0,0 STARLINK-3053,1 49149U 21082V   21360.50001157 -.00656089  00000-0 -53093-1 0  9998,2 49149  69.9999 202.7673 0003330 281.6160  93.2214 15.02208737 17374,6938.224,95.859,562.399,557.779,0.0
49149.0,STARLINK-3053,PAYLOAD,2021-12-26 14:00:01,15.02066083,0.0003269,70.0001,202.5557,283.2538,182.1053,-0.047734,-0.00591501,0.0,0 STARLINK-3053,1 49149U 21082V   21360.58334491 -.00591501  00000-0 -47734-1 0  9998,2 49149  70.0001 202.5557 0003269 283.2538 182.1053 15.02066083  3604,6938.663000000001,95.868,562.797,558.26,0.0
49149.0,STARLINK-3053,PAYLOAD,2021-12-26 20:00:01,15.01618864,0.0003251,70.0,201.9216,282.9509,93.758,-0.0061517,-0.00079182,0.0,0 STARLINK-3053,1 49149U 21082V   21360.83334491 -.00079182  00000-0 -61517-2 0  9998,2 49149  70.0000 201.9216 0003251 282.9509  93.7580 15.01618864 17429,6940.041,95.897,564.1619999999998,559.65,0.0
49149.0,STARLINK-3053,PAYLOAD,2021-12-26 22:00:00,15.01574724,0.0003292,70.0001,201.7103,284.8441,182.229,-0.00084468,-0.00011047,0.0,0 STARLINK-3053,1 49149U 21082V   21360.91667824 -.00011047  00000-0 -84468-3 0  9993,2 49149  70.0001 201.7103 0003292 284.8441 182.2290 15.01574724  3607,6940.177,95.899,564.327,559.757,0.0
49149.0,STARLINK-3053,PAYLOAD,2021-12-27 04:00:00,15.01572576,0.0003151,69.9996,201.0767,276.0657,102.0342,-0.00055024,-7.233e-05,0.0,0 STARLINK-3053,1 49149U 21082V   21361.16667824 -.00007233  00000-0 -55024-3 0  9999,2 49149  69.9996 201.0767 0003151 276.0657 102.0342 15.01572576 17473,6940.184,95.899,564.235,559.862,0.0
49149.0,STARLINK-3053,PAYLOAD,2021-12-27 12:00:00,15.0155271,0.0003295,69.9947,200.2384,277.0473,102.5319,0.003683,0.00048029,0.0,0 STARLINK-3053,1 49149U 21082V   21361.50001157  .00048029  00000-0  36830-2 0  9997,2 49149  69.9947 200.2384 0003295 277.0473 102.5319 15.01552710 17524,6940.245,95.901,564.3969999999998,559.823,0.0
49149.0,STARLINK-3053,PAYLOAD,2021-12-27 14:00:01,15.01582363,0.00033,69.9949,200.0271,277.3406,192.571,-0.00019477,-2.625e-05,0.0,0 STARLINK-3053,1 49149U 21082V   21361.58334491 -.00002625  00000-0 -19477-3 0  9998,2 49149  69.9949 200.0271 0003300 277.3406 192.5710 15.01582363  3600,6940.153,95.899,564.309,559.7280000000002,0.0
49149.0,STARLINK-3053,PAYLOAD,2021-12-27 20:00:01,15.01573894,0.0003374,69.9948,199.3935,281.6994,99.2546,-0.00039015,-5.159e-05,0.0,0 STARLINK-3053,1 49149U 21082V   21361.83334491 -.00005159  00000-0 -39015-3 0  9991,2 49149  69.9948 199.3935 0003374 281.6994  99.2546 15.01573894 17577,6940.179,95.899,564.386,559.703,0.0
49149.0,STARLINK-3053,PAYLOAD,2021-12-27 22:00:00,15.01561302,0.0003386,69.9949,199.1822,283.0307,188.27,0.001814,0.0002353,0.0,0 STARLINK-3053,1 49149U 21082V   21361.91667824  .00023530  00000-0  18140-2 0  9995,2 49149  69.9949 199.1822 0003386 283.0307 188.2700 15.01561302  3609,6940.218000000003,95.9,564.433,559.7330000000002,0.0
49149.0,STARLINK-3053,PAYLOAD,2021-12-28 14:00:01,15.01590678,0.0003358,69.9949,197.4923,277.5224,196.5162,-0.00073004,-9.567e-05,0.0,0 STARLINK-3053,1 49149U 21082V   21362.58334491 -.00009567  00000-0 -73004-3 0  9997,2 49149  69.9949 197.4923 0003358 277.5224 196.5162 15.01590678  3621,6940.128000000002,95.898,564.323,559.6619999999998,0.0
49149.0,STARLINK-3053,PAYLOAD,2021-12-28 20:00:01,15.01575883,0.0003406,69.9947,196.8587,282.0003,103.0863,1.7244e-05,1.28e-06,0.0,0 STARLINK-3053,1 49149U 21082V   21362.83334491  .00000128  00000-0  17244-4 0  9992,2 49149  69.9947 196.8587 0003406 282.0003 103.0863 15.01575883 17726,6940.1730000000025,95.899,564.4019999999998,559.675,0.0
49149.0,STARLINK-3053,PAYLOAD,2021-12-28 22:00:00,15.01563627,0.0003415,69.9948,196.6474,283.2532,192.1812,0.0022531,0.00029275,0.0,0 STARLINK-3053,1 49149U 21082V   21362.91667824  .00029275  00000-0  22531-2 0  9997,2 49149  69.9948 196.6474 0003415 283.2532 192.1812 15.01563627  3596,6940.2109999999975,95.9,564.446,559.706,0.0
49149.0,STARLINK-3053,PAYLOAD,2021-12-29 14:00:01,15.01651971,0.0003354,69.9965,194.9553,279.0397,199.194,-0.012791,-0.00162757,0.0,0 STARLINK-3053,1 49149U 21082V   21363.58335648 -.00162757  00000-0 -12791-1 0  9998,2 49149  69.9965 194.9553 0003354 279.0397 199.1940 15.01651971  3621,6939.939,95.894,564.132,559.476,0.0
49149.0,STARLINK-3053,PAYLOAD,2021-12-29 20:00:01,15.01593073,0.000334,69.9983,194.32,280.8898,108.4107,-0.027494,-0.00340595,0.0,0 STARLINK-3053,1 49149U 21082V   21363.83335648 -.00340595  00000-0 -27494-1 0  9990,2 49149  69.9983 194.3200 0003340 280.8898 108.4107 15.01593073 17873,6940.12,95.898,564.303,559.6669999999998,0.0
49149.0,STARLINK-3053,PAYLOAD,2021-12-29 21:28:10,15.01577807,0.0003295,69.9931,194.1689,281.5187,78.5604,3.8744e-05,4.07e-06,0.0,0 STARLINK-3053,1 49149U 21082V   21363.89456570  .00000407  00000-0  38744-4 0  9990,2 49149  69.9931 194.1689 0003295 281.5187  78.5604 15.01577807 17879,6940.167,95.899,564.319,559.746,0.0
49149.0,STARLINK-3053,PAYLOAD,2021-12-30 04:00:00,15.01414976,0.0003266,69.9997,193.4725,281.3418,109.1474,-0.055267,-0.00667946,0.0,0 STARLINK-3053,1 49149U 21082V   21364.16667824 -.00667946  00000-0 -55267-1 0  9992,2 49149  69.9997 193.4725 0003266 281.3418 109.1474 15.01414976 17926,6940.669,95.91,564.8009999999998,560.2669999999998,0.0
49149.0,STARLINK-3053,PAYLOAD,2021-12-30 13:27:57,15.01233772,0.0004499,69.993,192.4813,288.0962,71.9709,-0.0032754,-0.00042005,0.0,0 STARLINK-3053,1 49149U 21082V   21364.56108052 -.00042005  00000-0 -32754-2 0  9999,2 49149  69.9930 192.4813 0004499 288.0962  71.9709 15.01233772 17972,6941.228,95.921,566.216,559.97,0.0
49149.0,STARLINK-3053,PAYLOAD,2021-12-30 19:51:59,15.01043836,0.0004515,69.9932,191.8069,309.1446,50.9313,-0.0049559,-0.00063004,0.0,0 STARLINK-3053,1 49149U 21082V   21364.82777774 -.00063004  00000-0 -49559-2 0  9994,2 49149  69.9932 191.8069 0004515 309.1446  50.9313 15.01043836 18026,6941.813,95.933,566.812,560.544,0.0
49149.0,STARLINK-3053,PAYLOAD,2021-12-30 21:28:06,15.00917103,0.0003003,69.9931,191.6384,271.4287,88.65299999999998,-0.0062078,-0.00078451,0.0,0 STARLINK-3053,1 49149U 21082V   21364.89452246 -.00078451  00000-0 -62078-2 0  9998,2 49149  69.9931 191.6384 0003003 271.4287  88.6530 15.00917103 18023,6942.204000000002,95.941,566.154,561.984,0.0
49149.0,STARLINK-3053,PAYLOAD,2021-12-31 04:00:00,15.0001109,0.0003284,69.9998,190.9381,278.9416,112.4477,-0.057155,-0.00665854,0.0,0 STARLINK-3053,1 49149U 21082V   21365.16667824 -.00665854  00000-0 -57155-1 0  9997,2 49149  69.9998 190.9381 0003284 278.9416 112.4477 15.00011090 18073,6944.999,95.999,569.145,564.5830000000002,0.0
49149.0,STARLINK-3053,PAYLOAD,2021-12-31 11:52:18,15.005699800000002,0.0002733,69.9945,190.1219,258.05400000000003,102.0314,-0.0085361,-0.0010644,0.0,0 STARLINK-3053,1 49149U 21082V   21365.49466066 -.00106440  00000-0 -85361-2 0  9990,2 49149  69.9945 190.1219 0002733 258.0540 102.0314 15.00569980 18129,6943.275,95.964,567.0369999999998,563.242,0.0
49149.0,STARLINK-3053,PAYLOAD,2021-12-31 15:04:37,15.00298601,0.0003049,69.9945,189.7853,272.7153,87.3658,-0.011037,-0.00136057,0.0,0 STARLINK-3053,1 49149U 21082V   21365.62821571 -.00136057  00000-0 -11037-1 0  9996,2 49149  69.9945 189.7853 0003049 272.7153  87.3658 15.00298601 18137,6944.111999999999,95.981,568.094,563.86,0.0
49149.0,STARLINK-3053,PAYLOAD,2021-12-31 20:00:01,14.99077105,0.0003373,70.0001,189.2518,284.8405,104.4179,-0.05874,-0.00667686,0.0,0 STARLINK-3053,1 49149U 21082V   21365.83334491 -.00667686  00000-0 -58740-1 0  9998,2 49149  70.0001 189.2518 0003373 284.8405 104.4179 14.99077105 18174,6947.8830000000025,96.059,572.092,567.405,0.0
49149.0,STARLINK-3053,PAYLOAD,2021-12-31 21:29:01,14.99997937,0.0002818,69.9943,189.1114,273.4181,86.6656,-0.013343,-0.00162565,0.0,0 STARLINK-3053,1 49149U 21082V   21365.89515272 -.00162565  00000-0 -13343-1 0  9998,2 49149  69.9943 189.1114 0002818 273.4181  86.6656 14.99997937 18170,6945.04,96.0,568.862,564.948,0.0
49149.0,STARLINK-3053,PAYLOAD,2022-01-01 04:00:00,14.98475418,0.000319,69.9998,188.41,278.8964,108.4774,-0.018526,-0.00215306,0.0,0 STARLINK-3053,1 49149U 21082V   22001.16667824 -.00215306  00000-0 -18526-1 0  9997,2 49149  69.9998 188.4100 0003190 278.8964 108.4774 14.98475418 18223,6949.743,96.098,573.825,569.391,0.0
49149.0,STARLINK-3053,PAYLOAD,2022-01-01 12:00:00,14.98330087,0.0003167,70.0001,187.5693,277.3147,107.6204,4.7598e-05,4.75e-06,0.0,0 STARLINK-3053,1 49149U 21082V   22001.50001157  .00000475  00000-0  47598-4 0  9997,2 49149  70.0001 187.5693 0003167 277.3147 107.6204 14.98330087 18275,6950.193,96.107,574.259,569.856,0.0
49149.0,STARLINK-3053,PAYLOAD,2022-01-01 14:00:01,14.98331034,0.0003187,70.0003,187.3591,278.7993,195.5692,-0.00013911,-1.753e-05,0.0,0 STARLINK-3053,1 49149U 21082V   22001.58335648 -.00001753  00000-0 -13911-3 0  9993,2 49149  70.0003 187.3591 0003187 278.7993 195.5692 14.98331034  3597,6950.19,96.107,574.27,569.84,0.0
